{
  "type": "FeatureCollection",
  "features": [
    {
      "type": "Feature",
      "properties": {
        "norad_id": 33835,
        "name": "COSMOS 2251 DEB",
        "group": "cosmos-2251-debris",
        "lat": -19.587055250911614,
        "lon": 100.70546026818444,
        "alt_km": 729.7349227864042,
        "timestamp": "2025-12-09T21:34:11.802219+00:00",
        "meta_object_name": "COSMOS 2251 DEB",
        "meta_object_id": "1993-036CC",
        "meta_epoch": "2025-12-09T15:10:28.872768",
        "meta_mean_motion": 14.62194331,
        "meta_eccentricity": 0.00550012,
        "meta_inclination": 74.0575,
        "meta_ra_of_asc_node": 107.0527,
        "meta_arg_of_pericenter": 161.4618,
        "meta_mean_anomaly": 216.1424,
        "meta_ephemeris_type": 0,
        "meta_classification_type": "U",
        "meta_norad_cat_id": 33835,
        "meta_element_set_no": 999,
        "meta_rev_at_epoch": 88744,
        "meta_bstar": 0.0017703607,
        "meta_mean_motion_dot": 9.092e-05,
        "meta_mean_motion_ddot": 0,
        "tle_line1": "1 33835U 93036CC  25343.63227862  .00009092  00000+0  17704-2 0  9996",
        "tle_line2": "2 33835  74.0575 107.0527 0055001 161.4618 216.1424 14.62194331887447"
      },
      "geometry": {
        "type": "Point",
        "coordinates": [
          100.70546026818444,
          -19.587055250911614
        ]
      }
    },
    {
      "type": "Feature",
      "properties": {
        "norad_id": 33836,
        "name": "COSMOS 2251 DEB",
        "group": "cosmos-2251-debris",
        "lat": -6.208741932404557,
        "lon": 86.34555546357467,
        "alt_km": 628.1791371220243,
        "timestamp": "2025-12-09T21:34:11.802229+00:00",
        "meta_object_name": "COSMOS 2251 DEB",
        "meta_object_id": "1993-036CD",
        "meta_epoch": "2025-12-09T13:26:34.031040",
        "meta_mean_motion": 14.79518119,
        "meta_eccentricity": 0.00225132,
        "meta_inclination": 73.9973,
        "meta_ra_of_asc_node": 265.2242,
        "meta_arg_of_pericenter": 119.5959,
        "meta_mean_anomaly": 63.6132,
        "meta_ephemeris_type": 0,
        "meta_classification_type": "U",
        "meta_norad_cat_id": 33836,
        "meta_element_set_no": 999,
        "meta_rev_at_epoch": 64041,
        "meta_bstar": 0.0018820607,
        "meta_mean_motion_dot": 0.00014133,
        "meta_mean_motion_ddot": 0,
        "tle_line1": "1 33836U 93036CD  25343.56011610  .00014133  00000+0  18821-2 0  9994",
        "tle_line2": "2 33836  73.9973 265.2242 0022513 119.5959  63.6132 14.79518119640410"
      },
      "geometry": {
        "type": "Point",
        "coordinates": [
          86.34555546357467,
          -6.208741932404557
        ]
      }
    },
    {
      "type": "Feature",
      "properties": {
        "norad_id": 33837,
        "name": "COSMOS 2251 DEB",
        "group": "cosmos-2251-debris",
        "lat": 71.09974159944683,
        "lon": -175.91133044933034,
        "alt_km": 741.5794756427322,
        "timestamp": "2025-12-09T21:34:11.802240+00:00",
        "meta_object_name": "COSMOS 2251 DEB",
        "meta_object_id": "1993-036CE",
        "meta_epoch": "2025-12-09T07:52:03.791424",
        "meta_mean_motion": 14.50690817,
        "meta_eccentricity": 0.0035829,
        "meta_inclination": 74.0132,
        "meta_ra_of_asc_node": 62.0215,
        "meta_arg_of_pericenter": 284.3051,
        "meta_mean_anomaly": 75.4132,
        "meta_ephemeris_type": 0,
        "meta_classification_type": "U",
        "meta_norad_cat_id": 33837,
        "meta_element_set_no": 999,
        "meta_rev_at_epoch": 88746,
        "meta_bstar": 0.00048999,
        "meta_mean_motion_dot": 1.913e-05,
        "meta_mean_motion_ddot": 0,
        "tle_line1": "1 33837U 93036CE  25343.32782166  .00001913  00000+0  48999-3 0  9992",
        "tle_line2": "2 33837  74.0132  62.0215 0035829 284.3051  75.4132 14.50690817887465"
      },
      "geometry": {
        "type": "Point",
        "coordinates": [
          -175.91133044933034,
          71.09974159944683
        ]
      }
    },
    {
      "type": "Feature",
      "properties": {
        "norad_id": 33838,
        "name": "COSMOS 2251 DEB",
        "group": "cosmos-2251-debris",
        "lat": -3.091978314806181,
        "lon": 154.24808256826233,
        "alt_km": 730.4687576147608,
        "timestamp": "2025-12-09T21:34:11.802250+00:00",
        "meta_object_name": "COSMOS 2251 DEB",
        "meta_object_id": "1993-036CF",
        "meta_epoch": "2025-12-09T11:47:23.980128",
        "meta_mean_motion": 14.48348457,
        "meta_eccentricity": 0.00274534,
        "meta_inclination": 74.0363,
        "meta_ra_of_asc_node": 155.8969,
        "meta_arg_of_pericenter": 278.2149,
        "meta_mean_anomaly": 114.5223,
        "meta_ephemeris_type": 0,
        "meta_classification_type": "U",
        "meta_norad_cat_id": 33838,
        "meta_element_set_no": 999,
        "meta_rev_at_epoch": 88522,
        "meta_bstar": 0.00069355673,
        "meta_mean_motion_dot": 2.58e-05,
        "meta_mean_motion_ddot": 0,
        "tle_line1": "1 33838U 93036CF  25343.49124977  .00002580  00000+0  69356-3 0  9992",
        "tle_line2": "2 33838  74.0363 155.8969 0027453 278.2149 114.5223 14.48348457885228"
      },
      "geometry": {
        "type": "Point",
        "coordinates": [
          154.24808256826233,
          -3.091978314806181
        ]
      }
    },
    {
      "type": "Feature",
      "properties": {
        "norad_id": 33839,
        "name": "COSMOS 2251 DEB",
        "group": "cosmos-2251-debris",
        "lat": 56.83433785531083,
        "lon": 5.967240013183127,
        "alt_km": 727.3449465155145,
        "timestamp": "2025-12-09T21:34:11.802260+00:00",
        "meta_object_name": "COSMOS 2251 DEB",
        "meta_object_id": "1993-036CG",
        "meta_epoch": "2025-12-09T14:34:09.048288",
        "meta_mean_motion": 14.64407944,
        "meta_eccentricity": 0.00850173,
        "meta_inclination": 74.039,
        "meta_ra_of_asc_node": 212.4994,
        "meta_arg_of_pericenter": 325.3101,
        "meta_mean_anomaly": 56.5172,
        "meta_ephemeris_type": 0,
        "meta_classification_type": "U",
        "meta_norad_cat_id": 33839,
        "meta_element_set_no": 999,
        "meta_rev_at_epoch": 89534,
        "meta_bstar": 0.0004074477,
        "meta_mean_motion_dot": 2.238e-05,
        "meta_mean_motion_ddot": 0,
        "tle_line1": "1 33839U 93036CG  25343.60704917  .00002238  00000+0  40745-3 0  9995",
        "tle_line2": "2 33839  74.0390 212.4994 0085017 325.3101  56.5172 14.64407944895346"
      },
      "geometry": {
        "type": "Point",
        "coordinates": [
          5.967240013183127,
          56.83433785531083
        ]
      }
    },
    {
      "type": "Feature",
      "properties": {
        "norad_id": 33841,
        "name": "COSMOS 2251 DEB",
        "group": "cosmos-2251-debris",
        "lat": 55.28564853370062,
        "lon": 78.87099306298427,
        "alt_km": 766.5507724031168,
        "timestamp": "2025-12-09T21:34:11.802271+00:00",
        "meta_object_name": "COSMOS 2251 DEB",
        "meta_object_id": "1993-036CJ",
        "meta_epoch": "2025-12-09T15:09:26.951616",
        "meta_mean_motion": 14.37853867,
        "meta_eccentricity": 0.00203945,
        "meta_inclination": 74.0377,
        "meta_ra_of_asc_node": 283.7644,
        "meta_arg_of_pericenter": 4.8354,
        "meta_mean_anomaly": 173.6708,
        "meta_ephemeris_type": 0,
        "meta_classification_type": "U",
        "meta_norad_cat_id": 33841,
        "meta_element_set_no": 999,
        "meta_rev_at_epoch": 88069,
        "meta_bstar": 0.0004463223,
        "meta_mean_motion_dot": 1.323e-05,
        "meta_mean_motion_ddot": 0,
        "tle_line1": "1 33841U 93036CJ  25343.63156194  .00001323  00000+0  44632-3 0  9992",
        "tle_line2": "2 33841  74.0377 283.7644 0020394   4.8354 173.6708 14.37853867880690"
      },
      "geometry": {
        "type": "Point",
        "coordinates": [
          78.87099306298427,
          55.28564853370062
        ]
      }
    },
    {
      "type": "Feature",
      "properties": {
        "norad_id": 33842,
        "name": "COSMOS 2251 DEB",
        "group": "cosmos-2251-debris",
        "lat": -32.40317437457225,
        "lon": -145.54470593165746,
        "alt_km": 721.9392544612729,
        "timestamp": "2025-12-09T21:34:11.802281+00:00",
        "meta_object_name": "COSMOS 2251 DEB",
        "meta_object_id": "1993-036CK",
        "meta_epoch": "2025-12-09T15:04:05.794176",
        "meta_mean_motion": 14.42688482,
        "meta_eccentricity": 0.0047202,
        "meta_inclination": 74.0332,
        "meta_ra_of_asc_node": 225.4277,
        "meta_arg_of_pericenter": 333.3734,
        "meta_mean_anomaly": 26.4998,
        "meta_ephemeris_type": 0,
        "meta_classification_type": "U",
        "meta_norad_cat_id": 33842,
        "meta_element_set_no": 999,
        "meta_rev_at_epoch": 88292,
        "meta_bstar": 0.00052482269,
        "meta_mean_motion_dot": 1.743e-05,
        "meta_mean_motion_ddot": 0,
        "tle_line1": "1 33842U 93036CK  25343.62784484  .00001743  00000+0  52482-3 0  9999",
        "tle_line2": "2 33842  74.0332 225.4277 0047202 333.3734  26.4998 14.42688482882925"
      },
      "geometry": {
        "type": "Point",
        "coordinates": [
          -145.54470593165746,
          -32.40317437457225
        ]
      }
    }
  ]
}